CCSDS_OMM_VERS = 2.0
CREATION_DATE  = 
ORIGINATOR     = 

OBJECT_NAME    = ENVISAT
OBJECT_ID      = 2002-009A
CENTER_NAME    = EARTH
REF_FRAME      = TEME
TIME_SYSTEM    = UTC
MEAN_ELEMENT_THEORY = SGP/SGP4

EPOCH          = 2025-11-30T14:52:23.043360
MEAN_MOTION    = 14.38991879
ECCENTRICITY   = .00011993
INCLINATION    = 98.3583
RA_OF_ASC_NODE = 285.6687
ARG_OF_PERICENTER = 81.8433
MEAN_ANOMALY   = 91.0327

EPHEMERIS_TYPE = 0
CLASSIFICATION_TYPE = U
NORAD_CAT_ID   = 27386
ELEMENT_SET_NO = 999
REV_AT_EPOCH   = 24492
BSTAR          = .61714212E-4
MEAN_MOTION_DOT = .148E-5
MEAN_MOTION_DDOT = 0

CCSDS_OMM_VERS = 2.0
CREATION_DATE  = 
ORIGINATOR     = 

OBJECT_NAME    = IDEFIX & ARIANE 42P R/B
OBJECT_ID      = 2002-021B
CENTER_NAME    = EARTH
REF_FRAME      = TEME
TIME_SYSTEM    = UTC
MEAN_ELEMENT_THEORY = SGP/SGP4

EPOCH          = 2025-11-30T13:21:06.486048
MEAN_MOTION    = 14.30935589
ECCENTRICITY   = .00127693
INCLINATION    = 98.5769
RA_OF_ASC_NODE = 269.4064
ARG_OF_PERICENTER = 116.4979
MEAN_ANOMALY   = 243.7515

EPHEMERIS_TYPE = 0
CLASSIFICATION_TYPE = U
NORAD_CAT_ID   = 27422
ELEMENT_SET_NO = 999
REV_AT_EPOCH   = 22984
BSTAR          = .14034749E-3
MEAN_MOTION_DOT = .325E-5
MEAN_MOTION_DDOT = 0

CCSDS_OMM_VERS = 2.0
CREATION_DATE  = 
ORIGINATOR     = 

OBJECT_NAME    = AQUA
OBJECT_ID      = 2002-022A
CENTER_NAME    = EARTH
REF_FRAME      = TEME
TIME_SYSTEM    = UTC
MEAN_ELEMENT_THEORY = SGP/SGP4

EPOCH          = 2025-11-30T15:21:53.089056
MEAN_MOTION    = 14.61761625
ECCENTRICITY   = .00006776
INCLINATION    = 98.4020
RA_OF_ASC_NODE = 295.3241
ARG_OF_PERICENTER = 103.1342
MEAN_ANOMALY   = 307.1712

EPHEMERIS_TYPE = 0
CLASSIFICATION_TYPE = U
NORAD_CAT_ID   = 27424
ELEMENT_SET_NO = 999
REV_AT_EPOCH   = 25426
BSTAR          = .24876237E-3
MEAN_MOTION_DOT = .1192E-4
MEAN_MOTION_DDOT = 0

CCSDS_OMM_VERS = 2.0
CREATION_DATE  = 
ORIGINATOR     = 

OBJECT_NAME    = CZ-4B R/B
OBJECT_ID      = 2002-024C
CENTER_NAME    = EARTH
REF_FRAME      = TEME
TIME_SYSTEM    = UTC
MEAN_ELEMENT_THEORY = SGP/SGP4

EPOCH          = 2025-11-30T15:08:19.068864
MEAN_MOTION    = 14.14523734
ECCENTRICITY   = .00492849
INCLINATION    = 98.9019
RA_OF_ASC_NODE = 23.4437
ARG_OF_PERICENTER = 304.9720
MEAN_ANOMALY   = 167.3835

EPHEMERIS_TYPE = 0
CLASSIFICATION_TYPE = U
NORAD_CAT_ID   = 27432
ELEMENT_SET_NO = 999
REV_AT_EPOCH   = 21523
BSTAR          = .54255521E-4
MEAN_MOTION_DOT = .6E-6
MEAN_MOTION_DDOT = 0

CCSDS_OMM_VERS = 2.0
CREATION_DATE  = 
ORIGINATOR     = 

OBJECT_NAME    = MIDORI II (ADEOS-II)
OBJECT_ID      = 2002-056A
CENTER_NAME    = EARTH
REF_FRAME      = TEME
TIME_SYSTEM    = UTC
MEAN_ELEMENT_THEORY = SGP/SGP4

EPOCH          = 2025-11-30T14:29:33.344160
MEAN_MOTION    = 14.29192307
ECCENTRICITY   = .00004703
INCLINATION    = 98.7618
RA_OF_ASC_NODE = 287.4976
ARG_OF_PERICENTER = 12.3606
MEAN_ANOMALY   = 347.7586

EPHEMERIS_TYPE = 0
CLASSIFICATION_TYPE = U
NORAD_CAT_ID   = 27597
ELEMENT_SET_NO = 999
REV_AT_EPOCH   = 19614
BSTAR          = .13849022E-3
MEAN_MOTION_DOT = .306E-5
MEAN_MOTION_DDOT = 0

CCSDS_OMM_VERS = 2.0
CREATION_DATE  = 
ORIGINATOR     = 

OBJECT_NAME    = H-2A R/B
OBJECT_ID      = 2002-056E
CENTER_NAME    = EARTH
REF_FRAME      = TEME
TIME_SYSTEM    = UTC
MEAN_ELEMENT_THEORY = SGP/SGP4

EPOCH          = 2025-11-30T11:26:48.185376
MEAN_MOTION    = 14.33660573
ECCENTRICITY   = .00714852
INCLINATION    = 98.3049
RA_OF_ASC_NODE = 293.7235
ARG_OF_PERICENTER = 97.0929
MEAN_ANOMALY   = 14.5087

EPHEMERIS_TYPE = 0
CLASSIFICATION_TYPE = U
NORAD_CAT_ID   = 27601
ELEMENT_SET_NO = 999
REV_AT_EPOCH   = 19989
BSTAR          = .13351269E-3
MEAN_MOTION_DOT = .34E-5
MEAN_MOTION_DDOT = 0

CCSDS_OMM_VERS = 2.0
CREATION_DATE  = 
ORIGINATOR     = 

OBJECT_NAME    = CZ-4B R/B
OBJECT_ID      = 2003-049C
CENTER_NAME    = EARTH
REF_FRAME      = TEME
TIME_SYSTEM    = UTC
MEAN_ELEMENT_THEORY = SGP/SGP4

EPOCH          = 2025-11-30T13:26:44.652192
MEAN_MOTION    = 14.54891461
ECCENTRICITY   = .00483337
INCLINATION    = 98.6781
RA_OF_ASC_NODE = 320.6649
ARG_OF_PERICENTER = 172.8675
MEAN_ANOMALY   = 187.3220

EPHEMERIS_TYPE = 0
CLASSIFICATION_TYPE = U
NORAD_CAT_ID   = 28059
ELEMENT_SET_NO = 999
REV_AT_EPOCH   = 17218
BSTAR          = .1107201E-3
MEAN_MOTION_DOT = .432E-5
MEAN_MOTION_DDOT = 0

CCSDS_OMM_VERS = 2.0
CREATION_DATE  = 
ORIGINATOR     = 

OBJECT_NAME    = CZ-2C R/B
OBJECT_ID      = 2004-012C
CENTER_NAME    = EARTH
REF_FRAME      = TEME
TIME_SYSTEM    = UTC
MEAN_ELEMENT_THEORY = SGP/SGP4

EPOCH          = 2025-11-30T15:22:51.494592
MEAN_MOTION    = 15.54322120
ECCENTRICITY   = .00172941
INCLINATION    = 97.7452
RA_OF_ASC_NODE = 26.2729
ARG_OF_PERICENTER = 317.4461
MEAN_ANOMALY   = 42.5450

EPHEMERIS_TYPE = 0
CLASSIFICATION_TYPE = U
NORAD_CAT_ID   = 28222
ELEMENT_SET_NO = 999
REV_AT_EPOCH   = 18884
BSTAR          = .5793802E-3
MEAN_MOTION_DOT = .38156E-3
MEAN_MOTION_DDOT = 0

CCSDS_OMM_VERS = 2.0
CREATION_DATE  = 
ORIGINATOR     = 

OBJECT_NAME    = SL-16 R/B
OBJECT_ID      = 2004-021B
CENTER_NAME    = EARTH
REF_FRAME      = TEME
TIME_SYSTEM    = UTC
MEAN_ELEMENT_THEORY = SGP/SGP4

EPOCH          = 2025-11-30T14:24:21.350304
MEAN_MOTION    = 14.14582440
ECCENTRICITY   = .00059022
INCLINATION    = 71.0021
RA_OF_ASC_NODE = 80.4389
ARG_OF_PERICENTER = 215.2659
MEAN_ANOMALY   = 144.8074

EPHEMERIS_TYPE = 0
CLASSIFICATION_TYPE = U
NORAD_CAT_ID   = 28353
ELEMENT_SET_NO = 999
REV_AT_EPOCH   = 10882
BSTAR          = -.4833448E-5
MEAN_MOTION_DOT = -.57E-6
MEAN_MOTION_DDOT = 0

CCSDS_OMM_VERS = 2.0
CREATION_DATE  = 
ORIGINATOR     = 

OBJECT_NAME    = CZ-4B R/B
OBJECT_ID      = 2004-035C
CENTER_NAME    = EARTH
REF_FRAME      = TEME
TIME_SYSTEM    = UTC
MEAN_ELEMENT_THEORY = SGP/SGP4

EPOCH          = 2025-11-30T01:07:32.226528
MEAN_MOTION    = 15.27065992
ECCENTRICITY   = .00324821
INCLINATION    = 97.3634
RA_OF_ASC_NODE = 4.5625
ARG_OF_PERICENTER = 324.5136
MEAN_ANOMALY   = 35.3942

EPHEMERIS_TYPE = 0
CLASSIFICATION_TYPE = U
NORAD_CAT_ID   = 28415
ELEMENT_SET_NO = 999
REV_AT_EPOCH   = 16469
BSTAR          = .36181281E-3
MEAN_MOTION_DOT = .9683E-4
MEAN_MOTION_DDOT = 0

CCSDS_OMM_VERS = 2.0
CREATION_DATE  = 
ORIGINATOR     = 

OBJECT_NAME    = CZ-2C R/B
OBJECT_ID      = 2004-046B
CENTER_NAME    = EARTH
REF_FRAME      = TEME
TIME_SYSTEM    = UTC
MEAN_ELEMENT_THEORY = SGP/SGP4

EPOCH          = 2025-11-30T11:27:41.779296
MEAN_MOTION    = 14.26932057
ECCENTRICITY   = .01407568
INCLINATION    = 98.1979
RA_OF_ASC_NODE = 250.6183
ARG_OF_PERICENTER = 88.2765
MEAN_ANOMALY   = 273.4533

EPHEMERIS_TYPE = 0
CLASSIFICATION_TYPE = U
NORAD_CAT_ID   = 28480
ELEMENT_SET_NO = 999
REV_AT_EPOCH   = 9435
BSTAR          = .93889666E-4
MEAN_MOTION_DOT = .213E-5
MEAN_MOTION_DDOT = 0

CCSDS_OMM_VERS = 2.0
CREATION_DATE  = 
ORIGINATOR     = 

OBJECT_NAME    = ARIANE 5 R/B
OBJECT_ID      = 2004-049H
CENTER_NAME    = EARTH
REF_FRAME      = TEME
TIME_SYSTEM    = UTC
MEAN_ELEMENT_THEORY = SGP/SGP4

EPOCH          = 2025-11-30T10:57:28.550016
MEAN_MOTION    = 14.84967240
ECCENTRICITY   = .00837113
INCLINATION    = 98.2517
RA_OF_ASC_NODE = 134.2979
ARG_OF_PERICENTER = 313.2926
MEAN_ANOMALY   = 46.1326

EPHEMERIS_TYPE = 0
CLASSIFICATION_TYPE = U
NORAD_CAT_ID   = 28499
ELEMENT_SET_NO = 999
REV_AT_EPOCH   = 13106
BSTAR          = .11850881E-3
MEAN_MOTION_DOT = .1009E-4
MEAN_MOTION_DDOT = 0

