ENVISAT                 
1 27386U 02009A   25334.61971115  .00000148  00000+0  61714-4 0  9990
2 27386  98.3583 285.6687 0001199  81.8433  91.0327 14.38991879244925
IDEFIX & ARIANE 42P R/B 
1 27422U 02021B   25334.55632507  .00000325  00000+0  14035-3 0  9997
2 27422  98.5769 269.4064 0012769 116.4979 243.7515 14.30935589229845
AQUA                    
1 27424U 02022A   25334.64019779  .00001192  00000+0  24876-3 0  9997
2 27424  98.4020 295.3241 0000677 103.1342 307.1712 14.61761625254263
CZ-4B R/B               
1 27432U 02024C   25334.63077626  .00000060  00000+0  54256-4 0  9991
2 27432  98.9019  23.4437 0049284 304.9720 167.3835 14.14523734215231
MIDORI II (ADEOS-II)    
1 27597U 02056A   25334.60385815  .00000306  00000+0  13849-3 0  9992
2 27597  98.7618 287.4976 0000470  12.3606 347.7586 14.29192307196142
H-2A R/B                
1 27601U 02056E   25334.47694659  .00000340  00000+0  13351-3 0  9998
2 27601  98.3049 293.7235 0071485  97.0929  14.5087 14.33660573199892
CZ-4B R/B               
1 28059U 03049C   25334.56023903  .00000432  00000+0  11072-3 0  9997
2 28059  98.6781 320.6649 0048333 172.8675 187.3220 14.54891461172187
CZ-2C R/B               
1 28222U 04012C   25334.64087378  .00038156  00000+0  57938-3 0  9990
2 28222  97.7452  26.2729 0017294 317.4461  42.5450 15.54322120188843
SL-16 R/B               
1 28353U 04021B   25334.60024711 -.00000057  00000+0 -48334-5 0  9996
2 28353  71.0021  80.4389 0005902 215.2659 144.8074 14.14582440108822
CZ-4B R/B               
1 28415U 04035C   25334.04690077  .00009683  00000+0  36181-3 0  9999
2 28415  97.3634   4.5625 0032482 324.5136  35.3942 15.27065992164697
CZ-2C R/B               
1 28480U 04046B   25334.47756689  .00000213  00000+0  93890-4 0  9993
2 28480  98.1979 250.6183 0140756  88.2765 273.4533 14.26932057 94358
ARIANE 5 R/B            
1 28499U 04049H   25334.45658044  .00001009  00000+0  11851-3 0  9990
2 28499  98.2517 134.2979 0083711 313.2926  46.1326 14.84967240131065
